{
    "links": {
        "self": "http://www.neowsapp.com/rest/v1/neo/3582865?api_key=iIulBulltgU6a56xZRHN4H3l9WmuAYTsLGpBGhQ2"
    },
    "id": "3582865",
    "neo_reference_id": "3582865",
    "name": "(2011 UW114)",
    "designation": "2011 UW114",
    "nasa_jpl_url": "http://ssd.jpl.nasa.gov/sbdb.cgi?sstr=3582865",
    "absolute_magnitude_h": 22.0,
    "estimated_diameter": {
        "kilometers": {
            "estimated_diameter_min": 0.1058168859,
            "estimated_diameter_max": 0.2366137501
        },
        "meters": {
            "estimated_diameter_min": 105.8168859331,
            "estimated_diameter_max": 236.6137501138
        },
        "miles": {
            "estimated_diameter_min": 0.0657515442,
            "estimated_diameter_max": 0.1470249225
        },
        "feet": {
            "estimated_diameter_min": 347.1682720448,
            "estimated_diameter_max": 776.2918559233
        }
    },
    "is_potentially_hazardous_asteroid": false,
    "close_approach_data": [
        {
            "close_approach_date": "2005-02-11",
            "close_approach_date_full": "2005-Feb-11 04:42",
            "epoch_date_close_approach": 1108096920000,
            "relative_velocity": {
                "kilometers_per_second": "3.6648516955",
                "kilometers_per_hour": "13193.4661037857",
                "miles_per_hour": "8197.9067576551"
            },
            "miss_distance": {
                "astronomical": "1.8091378673",
                "lunar": "703.7546303797",
                "kilometers": "270643171.484422651",
                "miles": "168169868.6199925438"
            },
            "orbiting_body": "Juptr"
        },
        {
            "close_approach_date": "2011-10-20",
            "close_approach_date_full": "2011-Oct-20 17:33",
            "epoch_date_close_approach": 1319131980000,
            "relative_velocity": {
                "kilometers_per_second": "4.9995147534",
                "kilometers_per_hour": "17998.2531120696",
                "miles_per_hour": "11183.4145517746"
            },
            "miss_distance": {
                "astronomical": "0.2496706672",
                "lunar": "97.1218895408",
                "kilometers": "37350200.014598864",
                "miles": "23208338.1041337632"
            },
            "orbiting_body": "Earth"
        }
    ],
    "orbital_data": {
        "orbit_id": "13",
        "orbit_determination_date": "2017-04-06 08:52:16",
        "first_observation_date": "2011-10-23",
        "last_observation_date": "2011-12-18",
        "data_arc_in_days": 56,
        "observations_used": 63,
        "orbit_uncertainty": "6",
        "minimum_orbit_intersection": ".253462",
        "jupiter_tisserand_invariant": "3.140",
        "epoch_osculation": "2459000.5",
        "eccentricity": ".5364598583504161",
        "semi_major_axis": "2.692718540498019",
        "inclination": "5.904228007913243",
        "ascending_node_longitude": "214.0825015426928",
        "orbital_period": "1613.930644559023",
        "perihelion_distance": "1.248183133684912",
        "perihelion_argument": "173.2725744170093",
        "aphelion_distance": "4.137253947311125",
        "perihelion_time": "2459066.201916494215",
        "mean_anomaly": "345.3446676797068",
        "mean_motion": ".223057912193224",
        "equinox": "J2000",
        "orbit_class": {
            "orbit_class_type": "AMO",
            "orbit_class_description": "Near-Earth asteroid orbits similar to that of 1221 Amor",
            "orbit_class_range": "1.017 AU < q (perihelion) < 1.3 AU"
        }
    },
    "is_sentry_object": false
}